CCSDS_OMM_VERS = 2.0
CREATION_DATE  = 
ORIGINATOR     = 

OBJECT_NAME    = XRISM
OBJECT_ID      = 2023-137A
CENTER_NAME    = EARTH
REF_FRAME      = TEME
TIME_SYSTEM    = UTC
MEAN_ELEMENT_THEORY = SGP/SGP4

EPOCH          = 2026-03-29T04:28:04.069344
MEAN_MOTION    = 15.11724479
ECCENTRICITY   = .0007936
INCLINATION    = 31.0016
RA_OF_ASC_NODE = 157.5370
ARG_OF_PERICENTER = 235.2691
MEAN_ANOMALY   = 124.7201

EPHEMERIS_TYPE = 0
CLASSIFICATION_TYPE = U
NORAD_CAT_ID   = 57800
ELEMENT_SET_NO = 999
REV_AT_EPOCH   = 14074
BSTAR          = .43159E-3
MEAN_MOTION_DOT = .7642E-4
MEAN_MOTION_DDOT = 0

CCSDS_OMM_VERS = 2.0
CREATION_DATE  = 
ORIGINATOR     = 

OBJECT_NAME    = ACS3
OBJECT_ID      = 2024-077B
CENTER_NAME    = EARTH
REF_FRAME      = TEME
TIME_SYSTEM    = UTC
MEAN_ELEMENT_THEORY = SGP/SGP4

EPOCH          = 2026-03-29T01:50:38.780736
MEAN_MOTION    = 13.90503655
ECCENTRICITY   = .0072527
INCLINATION    = 97.1962
RA_OF_ASC_NODE = 24.8306
ARG_OF_PERICENTER = 32.5610
MEAN_ANOMALY   = 327.9997

EPHEMERIS_TYPE = 0
CLASSIFICATION_TYPE = U
NORAD_CAT_ID   = 59588
ELEMENT_SET_NO = 999
REV_AT_EPOCH   = 9689
BSTAR          = .21884E-1
MEAN_MOTION_DOT = .27867E-3
MEAN_MOTION_DDOT = 0

CCSDS_OMM_VERS = 2.0
CREATION_DATE  = 
ORIGINATOR     = 

OBJECT_NAME    = SZ-21 MODULE
OBJECT_ID      = 2025-246C
CENTER_NAME    = EARTH
REF_FRAME      = TEME
TIME_SYSTEM    = UTC
MEAN_ELEMENT_THEORY = SGP/SGP4

EPOCH          = 2026-03-29T00:54:26.680320
MEAN_MOTION    = 15.70036431
ECCENTRICITY   = .0001715
INCLINATION    = 41.4742
RA_OF_ASC_NODE = 84.1231
ARG_OF_PERICENTER = 213.3550
MEAN_ANOMALY   = 146.7184

EPHEMERIS_TYPE = 0
CLASSIFICATION_TYPE = U
NORAD_CAT_ID   = 66515
ELEMENT_SET_NO = 999
REV_AT_EPOCH   = 2111
BSTAR          = .35621E-3
MEAN_MOTION_DOT = .44105E-3
MEAN_MOTION_DDOT = 0

