{"fetched_at":"2026-03-30T13:17:50Z","count":15418,"tles":[{"name":"ACS3","line1":"1 59588U 24077B   26088.07683774  .00027867  00000+0  21884-1 0  9994","line2":"2 59588  97.1962  24.8306 0072527  32.5610 327.9997 13.90503655 96899","category":"Other"},{"name":"XRISM","line1":"1 57800U 23137A   26088.18615821  .00007642  00000+0  43159-3 0  9995","line2":"2 57800  31.0016 157.5370 0007936 235.2691 124.7201 15.11724479140748","category":"Other"},{"name":"SZ-21 MODULE","line1":"1 66515U 25246C   26088.03780880  .00044105  00000+0  35621-3 0  9993","line2":"2 66515  41.4742  84.1231 0001715 213.3550 146.7184 15.70036431 21115","category":"Other"}]}